0 INDEX DEB
1 28829U 05031G   13281.82638698  .00024843  00000-0  14836-2 0  6580
2 28829 097.9911 240.0796 0019542 180.6736 237.7669 15.10936781441153
0 INDEX DEB
1 28829U 05031G   13282.17015833  .00039478  00000-0  23478-2 0  6592
2 28829 097.9910 240.4386 0019682 179.5578 307.6255 15.10975350441206
0 INDEX DEB
1 28829U 05031G   13283.16242995  .00032562  00000-0  19357-2 0  6603
2 28829 097.9905 241.4750 0019802 176.1012 305.2927 15.11036521441351
0 INDEX DEB
1 28829U 05031G   13283.53745993  .00077573  00000-0  46212-2 0  6623
2 28829 097.9907 241.8655 0019261 174.5812 185.6141 15.11064785441418
0 INDEX DEB
1 28829U 05031G   13283.80233913  .00058401  00000-0  34776-2 0  6640
2 28829 097.9904 242.1421 0019328 173.7265 186.4721 15.11078442441459
0 INDEX DEB
1 28829U 05031G   13284.15638314  .00032513  00000-0  19301-2 0  6657
2 28829 097.9901 242.5132 0019953 173.1875 311.7700 15.11084485441504
0 INDEX DEB
1 28829U 05031G   13285.53594819  .00029550  00000-0  17516-2 0  6665
2 28829 097.9898 243.9541 0020145 168.8729 256.2968 15.11156961441713
0 INDEX DEB
1 28829U 05031G   13286.79386333  .00030914  00000-0  18286-2 0  6676
2 28829 097.9902 245.2679 0020298 164.8145 259.5141 15.11219842441901
0 INDEX DEB
1 28829U 05031G   13288.19365856  .00050313  00000-0  29570-2 0  6683
2 28829 097.9910 246.7307 0020625 159.8917 315.3592 15.11320116442111
0 INDEX DEB
1 28829U 05031G   13289.12317859  .00041783  00000-0  24543-2 0  6694
2 28829 097.9913 247.7016 0020803 156.7304 332.7825 15.11389373442253
0 INDEX DEB
1 28829U 05031G   13290.11612412  .00038836  00000-0  22784-2 0  6700
2 28829 097.9917 248.7391 0021013 153.4411 335.4384 15.11448626442405
0 INDEX DEB
1 28829U 05031G   13291.17504697  .00036749  00000-0  21519-2 0  6719
2 28829 097.9920 249.8459 0021263 150.2423 337.0300 15.11525882442564
0 INDEX DEB
1 28829U 05031G   13292.50148222  .00035490  00000-0  20736-2 0  6728
2 28829 097.9921 251.2321 0021498 146.0307 354.7392 15.11610625442763
0 INDEX DEB
1 28829U 05031G   13293.81072361  .00038920  00000-0  22675-2 0  6739
2 28829 097.9921 252.6008 0021582 142.3047 278.8672 15.11689023442961
0 INDEX DEB
1 28829U 05031G   13294.86953648  .00046227  00000-0  26845-2 0  6744
2 28829 097.9923 253.7079 0021691 139.1749 280.7040 15.11757565443124
0 INDEX DEB
1 28829U 05031G   13295.47985484  .00045293  00000-0  26276-2 0  6756
2 28829 097.9926 254.3461 0021757 137.4076 002.0069 15.11798576443219
